{"type": "FeatureCollection", "features": [ {"type": "Feature", "properties": {"norad_id": 33917, "name": "COSMOS 2251 DEB", "group": "cosmos-2251-debris", "lat": 1.6047318247342766, "lon": -47.666762894528, "alt_km": 865.2616881291415, "timestamp": "2025-12-06T09:34:17.307137+00:00", "meta": {"OBJECT_NAME": "COSMOS 2251 DEB", "OBJECT_ID": "1993-036DW", "EPOCH": "2025-12-05T20:23:59.559360", "MEAN_MOTION": 13.69342043, "ECCENTRICITY": 0.03311393, "INCLINATION": 74.1065, "RA_OF_ASC_NODE": 133.6901, "ARG_OF_PERICENTER": 236.1648, "MEAN_ANOMALY": 120.7547, "EPHEMERIS_TYPE": 0, "CLASSIFICATION_TYPE": "U", "NORAD_CAT_ID": 33917, "ELEMENT_SET_NO": 999, "REV_AT_EPOCH": 83639, "BSTAR": 0.0010933074, "MEAN_MOTION_DOT": 1.372e-05, "MEAN_MOTION_DDOT": 0}, "tle": {"line1": "1 33917U 93036DW  25339.84999490  .00001372  00000+0  10933-2 0  9998", "line2": "2 33917  74.1065 133.6901 0331139 236.1648 120.7547 13.69342043836391"}}, "geometry": {"type": "Point", "coordinates": [-47.666762894528, 1.6047318247342766]}}, {"type": "Feature", "properties": {"norad_id": 33920, "name": "COSMOS 2251 DEB", "group": "cosmos-2251-debris", "lat": 35.885250283479316, "lon": -37.59303168400621, "alt_km": 691.3475570898181, "timestamp": "2025-12-06T09:34:17.307147+00:00", "meta": {"OBJECT_NAME": "COSMOS 2251 DEB", "OBJECT_ID": "1993-036DZ", "EPOCH": "2025-12-05T23:31:13.622592", "MEAN_MOTION": 14.58081418, "ECCENTRICITY": 0.00386381, "INCLINATION": 74.0606, "RA_OF_ASC_NODE": 311.2693, "ARG_OF_PERICENTER": 319.2446, "MEAN_ANOMALY": 40.5829, "EPHEMERIS_TYPE": 0, "CLASSIFICATION_TYPE": "U", "NORAD_CAT_ID": 33920, "ELEMENT_SET_NO": 999, "REV_AT_EPOCH": 88016, "BSTAR": 0.0032522001, "MEAN_MOTION_DOT": 0.00015127, "MEAN_MOTION_DDOT": 0}, "tle": {"line1": "1 33920U 93036DZ  25339.98001878  .00015127  00000+0  32522-2 0  9992", "line2": "2 33920  74.0606 311.2693 0038638 319.2446  40.5829 14.58081418880165"}}, "geometry": {"type": "Point", "coordinates": [-37.59303168400621, 35.885250283479316]}}, {"type": "Feature", "properties": {"norad_id": 33922, "name": "COSMOS 2251 DEB", "group": "cosmos-2251-debris", "lat": 16.896908952190262, "lon": 164.63739606279546, "alt_km": 732.2935980438178, "timestamp": "2025-12-06T09:34:17.307157+00:00", "meta": {"OBJECT_NAME": "COSMOS 2251 DEB", "OBJECT_ID": "1993-036EB", "EPOCH": "2025-12-05T22:38:25.872864", "MEAN_MOTION": 14.49469919, "ECCENTRICITY": 0.00232717, "INCLINATION": 74.046, "RA_OF_ASC_NODE": 160.506, "ARG_OF_PERICENTER": 271.9238, "MEAN_ANOMALY": 249.8771, "EPHEMERIS_TYPE": 0, "CLASSIFICATION_TYPE": "U", "NORAD_CAT_ID": 33922, "ELEMENT_SET_NO": 999, "REV_AT_EPOCH": 88479, "BSTAR": 0.00079593291, "MEAN_MOTION_DOT": 3.032e-05, "MEAN_MOTION_DDOT": 0}, "tle": {"line1": "1 33922U 93036EB  25339.94335501  .00003032  00000+0  79593-3 0  9995", "line2": "2 33922  74.0460 160.5060 0023271 271.9238 249.8771 14.49469919884797"}}, "geometry": {"type": "Point", "coordinates": [164.63739606279546, 16.896908952190262]}}, {"type": "Feature", "properties": {"norad_id": 33924, "name": "COSMOS 2251 DEB", "group": "cosmos-2251-debris", "lat": 53.00874936874456, "lon": -57.08490790028973, "alt_km": 1103.065012179487, "timestamp": "2025-12-06T09:34:17.307167+00:00", "meta": {"OBJECT_NAME": "COSMOS 2251 DEB", "OBJECT_ID": "1993-036ED", "EPOCH": "2025-12-05T22:37:57.444672", "MEAN_MOTION": 13.50203941, "ECCENTRICITY": 0.04040721, "INCLINATION": 73.9142, "RA_OF_ASC_NODE": 281.1261, "ARG_OF_PERICENTER": 317.7688, "MEAN_ANOMALY": 39.2933, "EPHEMERIS_TYPE": 0, "CLASSIFICATION_TYPE": "U", "NORAD_CAT_ID": 33924, "ELEMENT_SET_NO": 999, "REV_AT_EPOCH": 82647, "BSTAR": 0.0019494463, "MEAN_MOTION_DOT": 2.044e-05, "MEAN_MOTION_DDOT": 0}, "tle": {"line1": "1 33924U 93036ED  25339.94302598  .00002044  00000+0  19494-2 0  9992", "line2": "2 33924  73.9142 281.1261 0404072 317.7688  39.2933 13.50203941826471"}}, "geometry": {"type": "Point", "coordinates": [-57.08490790028973, 53.00874936874456]}}, {"type": "Feature", "properties": {"norad_id": 33928, "name": "COSMOS 2251 DEB", "group": "cosmos-2251-debris", "lat": -73.79713877134795, "lon": -32.62984256199879, "alt_km": 742.4041266945496, "timestamp": "2025-12-06T09:34:17.307178+00:00", "meta": {"OBJECT_NAME": "COSMOS 2251 DEB", "OBJECT_ID": "1993-036EH", "EPOCH": "2025-12-05T15:44:44.162880", "MEAN_MOTION": 14.47384062, "ECCENTRICITY": 0.00611142, "INCLINATION": 73.926, "RA_OF_ASC_NODE": 65.9011, "ARG_OF_PERICENTER": 1.5699, "MEAN_ANOMALY": 358.5639, "EPHEMERIS_TYPE": 0, "CLASSIFICATION_TYPE": "U", "NORAD_CAT_ID": 33928, "ELEMENT_SET_NO": 999, "REV_AT_EPOCH": 88542, "BSTAR": 0.00045332524, "MEAN_MOTION_DOT": 1.672e-05, "MEAN_MOTION_DDOT": 0}, "tle": {"line1": "1 33928U 93036EH  25339.65606670  .00001672  00000+0  45333-3 0  9990", "line2": "2 33928  73.9260  65.9011 0061114   1.5699 358.5639 14.47384062885424"}}, "geometry": {"type": "Point", "coordinates": [-32.62984256199879, -73.79713877134795]}}, {"type": "Feature", "properties": {"norad_id": 33932, "name": "COSMOS 2251 DEB", "group": "cosmos-2251-debris", "lat": -59.35307219026689, "lon": 176.50609530973344, "alt_km": 793.2531333752477, "timestamp": "2025-12-06T09:34:17.307188+00:00", "meta": {"OBJECT_NAME": "COSMOS 2251 DEB", "OBJECT_ID": "1993-036EM", "EPOCH": "2025-12-05T22:25:53.130144", "MEAN_MOTION": 14.38726353, "ECCENTRICITY": 0.00349853, "INCLINATION": 74.0342, "RA_OF_ASC_NODE": 328.4686, "ARG_OF_PERICENTER": 46.5757, "MEAN_ANOMALY": 313.8299, "EPHEMERIS_TYPE": 0, "CLASSIFICATION_TYPE": "U", "NORAD_CAT_ID": 33932, "ELEMENT_SET_NO": 999, "REV_AT_EPOCH": 87900, "BSTAR": 0.0008546064, "MEAN_MOTION_DOT": 2.617e-05, "MEAN_MOTION_DDOT": 0}, "tle": {"line1": "1 33932U 93036EM  25339.93464271  .00002617  00000+0  85461-3 0  9991", "line2": "2 33932  74.0342 328.4686 0034985  46.5757 313.8299 14.38726353879003"}}, "geometry": {"type": "Point", "coordinates": [176.50609530973344, -59.35307219026689]}}, {"type": "Feature", "properties": {"norad_id": 33933, "name": "COSMOS 2251 DEB", "group": "cosmos-2251-debris", "lat": -31.360081327998152, "lon": -98.29578554670455, "alt_km": 818.6147769239578, "timestamp": "2025-12-06T09:34:17.307198+00:00", "meta": {"OBJECT_NAME": "COSMOS 2251 DEB", "OBJECT_ID": "1993-036EN", "EPOCH": "2025-12-05T15:50:23.606880", "MEAN_MOTION": 14.33470614, "ECCENTRICITY": 0.00708018, "INCLINATION": 74.0892, "RA_OF_ASC_NODE": 73.0389, "ARG_OF_PERICENTER": 83.5724, "MEAN_ANOMALY": 277.3484, "EPHEMERIS_TYPE": 0, "CLASSIFICATION_TYPE": "U", "NORAD_CAT_ID": 33933, "ELEMENT_SET_NO": 999, "REV_AT_EPOCH": 87683, "BSTAR": 0.00056945763, "MEAN_MOTION_DOT": 1.593e-05, "MEAN_MOTION_DDOT": 0}, "tle": {"line1": "1 33933U 93036EN  25339.65999545  .00001593  00000+0  56946-3 0  9996", "line2": "2 33933  74.0892  73.0389 0070801  83.5724 277.3484 14.33470614876838"}}, "geometry": {"type": "Point", "coordinates": [-98.29578554670455, -31.360081327998152]}}, {"type": "Feature", "properties": {"norad_id": 33934, "name": "COSMOS 2251 DEB", "group": "cosmos-2251-debris", "lat": 68.23211935372578, "lon": -113.13555440515809, "alt_km": 696.780524958046, "timestamp": "2025-12-06T09:34:17.307208+00:00", "meta": {"OBJECT_NAME": "COSMOS 2251 DEB", "OBJECT_ID": "1993-036EP", "EPOCH": "2025-12-05T19:55:33.279456", "MEAN_MOTION": 14.59010135, "ECCENTRICITY": 0.00159813, "INCLINATION": 74.0379, "RA_OF_ASC_NODE": 113.7349, "ARG_OF_PERICENTER": 237.3224, "MEAN_ANOMALY": 122.64, "EPHEMERIS_TYPE": 0, "CLASSIFICATION_TYPE": "U", "NORAD_CAT_ID": 33934, "ELEMENT_SET_NO": 999, "REV_AT_EPOCH": 88638, "BSTAR": 0.001825884, "MEAN_MOTION_DOT": 8.572e-05, "MEAN_MOTION_DDOT": 0}, "tle": {"line1": "1 33934U 93036EP  25339.83024629  .00008572  00000+0  18259-2 0  9997", "line2": "2 33934  74.0379 113.7349 0015981 237.3224 122.6400 14.59010135886386"}}, "geometry": {"type": "Point", "coordinates": [-113.13555440515809, 68.23211935372578]}}, {"type": "Feature", "properties": {"norad_id": 33936, "name": "COSMOS 2251 DEB", "group": "cosmos-2251-debris", "lat": 6.022634973803689, "lon": 51.33568706089534, "alt_km": 712.9562946434871, "timestamp": "2025-12-06T09:34:17.307218+00:00", "meta": {"OBJECT_NAME": "COSMOS 2251 DEB", "OBJECT_ID": "1993-036ER", "EPOCH": "2025-12-05T22:01:57.758304", "MEAN_MOTION": 14.6019952, "ECCENTRICITY": 0.00279925, "INCLINATION": 74.0194, "RA_OF_ASC_NODE": 50.5214, "ARG_OF_PERICENTER": 207.1566, "MEAN_ANOMALY": 152.8137, "EPHEMERIS_TYPE": 0, "CLASSIFICATION_TYPE": "U", "NORAD_CAT_ID": 33936, "ELEMENT_SET_NO": 999, "REV_AT_EPOCH": 88790, "BSTAR": 0.0012645761, "MEAN_MOTION_DOT": 6.104e-05, "MEAN_MOTION_DDOT": 0}, "tle": {"line1": "1 33936U 93036ER  25339.91802961  .00006104  00000+0  12646-2 0  9994", "line2": "2 33936  74.0194  50.5214 0027992 207.1566 152.8137 14.60199520887900"}}, "geometry": {"type": "Point", "coordinates": [51.33568706089534, 6.022634973803689]}}, {"type": "Feature", "properties": {"norad_id": 33938, "name": "COSMOS 2251 DEB", "group": "cosmos-2251-debris", "lat": 12.603901928712885, "lon": 35.34689259265174, "alt_km": 745.5232596907654, "timestamp": "2025-12-06T09:34:17.307228+00:00", "meta": {"OBJECT_NAME": "COSMOS 2251 DEB", "OBJECT_ID": "1993-036ET", "EPOCH": "2025-12-05T23:20:27.380832", "MEAN_MOTION": 14.46761098, "ECCENTRICITY": 0.00168806, "INCLINATION": 74.046, "RA_OF_ASC_NODE": 219.8097, "ARG_OF_PERICENTER": 302.3834, "MEAN_ANOMALY": 165.2551, "EPHEMERIS_TYPE": 0, "CLASSIFICATION_TYPE": "U", "NORAD_CAT_ID": 33938, "ELEMENT_SET_NO": 999, "REV_AT_EPOCH": 88302, "BSTAR": 0.00084533254, "MEAN_MOTION_DOT": 3.039e-05, "MEAN_MOTION_DDOT": 0}, "tle": {"line1": "1 33938U 93036ET  25339.97253913  .00003039  00000+0  84533-3 0  9998", "line2": "2 33938  74.0460 219.8097 0016880 302.3834 165.2551 14.46761098883023"}}, "geometry": {"type": "Point", "coordinates": [35.34689259265174, 12.603901928712885]}}]}